{
"type": "FeatureCollection",
"name": "Lavras_buffer10km",
"crs": { "type": "name", "properties": { "name": "urn:ogc:def:crs:EPSG::31983" } },
"features": [
{ "type": "Feature", "properties": { "CD_MUN": "3138203", "NM_MUN": "Lavras", "CD_RGI": "310043", "NM_RGI": "Lavras", "CD_RGINT": "3108", "NM_RGINT": "Varginha", "CD_UF": "31", "NM_UF": "Minas Gerais", "SIGLA_UF": "MG", "CD_REGIA": "3", "NM_REGIA": "Sudeste", "SIGLA_RG": "SE", "CD_CONCU": "3138203", "NM_CONCU": "Lavras/MG", "AREA_KM2": 564.744, "Long": -45.038092767964812, "Lat": -21.261985029429734 }, "geometry": { "type": "MultiPolygon", "coordinates": [ [ [ [ -45.189572320698588, -21.167135388705898 ], [ -45.18962688674798, -21.167001862373276 ], [ -45.189697981344089, -21.166822992791936 ], [ -45.189782981344088, -21.166602992791933 ], [ -45.190161125224243, -21.165405477328232 ], [ -45.190221125224241, -21.165163477328232 ], [ -45.190494629146549, -21.162119032839932 ], [ -45.190480629146549, -21.161900032839934 ], [ -45.190008298394794, -21.159437794001622 ], [ -45.189933298394791, -21.15920779400162 ], [ -45.188450108628082, -21.156340280106711 ], [ -45.186813004715724, -21.154755385973541 ], [ -45.186817738822036, -21.154750034375105 ], [ -45.186698750178287, -21.154644775190253 ], [ -45.186130607116816, -21.154094751090906 ], [ -45.185930460104096, -21.153999315591602 ], [ -45.185890405455048, -21.153958287955128 ], [ -45.185358866279714, -21.153452378312505 ], [ -45.185099866279714, -21.153223378312504 ], [ -45.184322897297015, -21.152602430000414 ], [ -45.184100897297014, -21.152442430000413 ], [ -45.181209893533598, -21.151110542256724 ], [ -45.181270159828571, -21.150330404936224 ], [ -45.181256159828571, -21.150054404936224 ], [ -45.180568411098363, -21.146883915118778 ], [ -45.178901898978218, -21.144100438632105 ], [ -45.176432023935426, -21.141996936487725 ], [ -45.176223023935421, -21.141870936487727 ], [ -45.175633947446315, -21.141611544522892 ], [ -45.175218916752925, -21.141172916801075 ], [ -45.171761694165291, -21.139586097636965 ], [ -45.171527694165292, -21.139529097636967 ], [ -45.169122240601183, -21.139245075114832 ], [ -45.168864240601181, -21.139246075114833 ], [ -45.168462749303572, -21.13925569573415 ], [ -45.16835388894107, -21.139260492970465 ], [ -45.168333411710506, -21.139260631799146 ], [ -45.167132, -21.137837 ], [ -45.166932, -21.137687 ], [ -45.16690906927122, -21.137669853192872 ], [ -45.166685069271217, -21.137502853192874 ], [ -45.166051871618834, -21.137067601753266 ], [ -45.165809871618833, -21.136914601753265 ], [ -45.163276837054163, -21.135770167446761 ], [ -45.16052663738769, -21.135367183846331 ], [ -45.157771752880286, -21.135736785440713 ], [ -45.155225025743363, -21.136850416832949 ], [ -45.155017025743362, -21.13697841683295 ], [ -45.154230282586838, -21.137515863280587 ], [ -45.154152893466943, -21.137574325713555 ], [ -45.154065618062909, -21.137636665287861 ], [ -45.15373334338048, -21.137884564340322 ], [ -45.15352534338048, -21.138046564340321 ], [ -45.152856649591669, -21.138640514094103 ], [ -45.152647776638922, -21.138668676739417 ], [ -45.151730769644772, -21.138836158886331 ], [ -45.151423769644772, -21.13890715888633 ], [ -45.15099887693124, -21.139015288959779 ], [ -45.150703876931239, -21.139097288959778 ], [ -45.150352624182126, -21.139271473118768 ], [ -45.150029456273046, -21.139339696046946 ], [ -45.149857861479411, -21.139385529184008 ], [ -45.149699227075416, -21.139423171245973 ], [ -45.14880486057384, -21.139679885527102 ], [ -45.148387860573841, -21.139820885527104 ], [ -45.148135923196193, -21.139909840779286 ], [ -45.147915923196187, -21.139990840779284 ], [ -45.14789219323751, -21.140000249251909 ], [ -45.14770398380989, -21.140056444857276 ], [ -45.147458983809891, -21.140137444857277 ], [ -45.14533676330214, -21.141329119084972 ], [ -45.145284149718137, -21.141234220964137 ], [ -45.14505407969461, -21.141361776793509 ], [ -45.144836520992321, -21.141478270992252 ], [ -45.143762989667735, -21.142143573982324 ], [ -45.143468989667731, -21.142352573982325 ], [ -45.143377352863595, -21.142420043804616 ], [ -45.143371075876743, -21.142424038250795 ], [ -45.143267197765489, -21.142485071693592 ], [ -45.141301693580324, -21.1439963931319 ], [ -45.141032693580321, -21.1442623931319 ], [ -45.140931714288342, -21.144363684731921 ], [ -45.140886894084126, -21.144409291255506 ], [ -45.14060408847223, -21.144677060168206 ], [ -45.140387032786087, -21.144874182168884 ], [ -45.140038932188133, -21.145205932188137 ], [ -45.14002085075473, -21.145224013621544 ], [ -45.139841553520782, -21.145387473161044 ], [ -45.139670553520787, -21.145549473161044 ], [ -45.138946786556566, -21.146311188507866 ], [ -45.138787786556563, -21.146497188507865 ], [ -45.138369403028932, -21.147021218582708 ], [ -45.138223403028931, -21.147217218582707 ], [ -45.137153430653655, -21.149022099773564 ], [ -45.137031430653657, -21.149288099773564 ], [ -45.136815528126235, -21.149795280020733 ], [ -45.136706528126233, -21.150072280020733 ], [ -45.136172114856883, -21.151951681181632 ], [ -45.136124114856884, -21.152216681181631 ], [ -45.135976747806836, -21.154503770868974 ], [ -45.135990747806837, -21.154780770868975 ], [ -45.137306535937277, -21.15925653320528 ], [ -45.137418535937279, -21.159451533205281 ], [ -45.138450847270995, -21.160924165547463 ], [ -45.138635847270997, -21.161143165547461 ], [ -45.139197503736462, -21.161715192944285 ], [ -45.139196552707645, -21.161716079816394 ], [ -45.139431552707649, -21.161968079816393 ], [ -45.139631136864359, -21.162156833065215 ], [ -45.139683160311499, -21.162209817120186 ], [ -45.139737889184474, -21.162257792217346 ], [ -45.140229145003858, -21.162722388873913 ], [ -45.140226114307964, -21.162879813661075 ], [ -45.140233114307961, -21.164343813661073 ], [ -45.14025018151559, -21.16488194804154 ], [ -45.140276934962202, -21.165337747502313 ], [ -45.140290691943306, -21.165575546747089 ], [ -45.140291572056341, -21.165590564215641 ], [ -45.14029687713051, -21.165679934311228 ], [ -45.140303084227334, -21.165866147215883 ], [ -45.140305211737058, -21.166193074544001 ], [ -45.140332019063706, -21.166810155805919 ], [ -45.139907608895562, -21.166616227646308 ], [ -45.139661608895565, -21.166536227646308 ], [ -45.139233311722343, -21.166407460533556 ], [ -45.139114387876312, -21.166374587275303 ], [ -45.138981493787604, -21.166334052012726 ], [ -45.138962742942056, -21.166395526303823 ], [ -45.138870491451321, -21.166367989470945 ], [ -45.138851520860442, -21.166312053356748 ], [ -45.138789123967356, -21.166154985315536 ], [ -45.138756594866315, -21.166051070251481 ], [ -45.13868159486632, -21.165832070251479 ], [ -45.138569546771876, -21.165631785167339 ], [ -45.138541700562499, -21.165567738885773 ], [ -45.13853527858322, -21.16557053105068 ], [ -45.136932305690316, -21.162705229660926 ], [ -45.136771305690317, -21.162510229660924 ], [ -45.135424344056915, -21.161163691713327 ], [ -45.13520134405691, -21.160979691713329 ], [ -45.133789157104616, -21.160137256064186 ], [ -45.133817838597651, -21.160089071155884 ], [ -45.133607838597648, -21.159964071155883 ], [ -45.13333892890001, -21.159868673856153 ], [ -45.132600804332967, -21.159428347985859 ], [ -45.131068844745023, -21.159063348126168 ], [ -45.129936935264652, -21.158661796568463 ], [ -45.129703935264651, -21.158627796568464 ], [ -45.128221240601249, -21.158523075114832 ], [ -45.127705240601252, -21.158525075114831 ], [ -45.126665981732053, -21.158583275973758 ], [ -45.12639072016394, -21.158613123613677 ], [ -45.126189525121802, -21.158632619257293 ], [ -45.125739786437606, -21.158686505063393 ], [ -45.125494786437606, -21.158721505063394 ], [ -45.125304062034218, -21.158750631510124 ], [ -45.124935062034218, -21.158810631510121 ], [ -45.124669776292286, -21.158887078592969 ], [ -45.124513017894365, -21.158901593259444 ], [ -45.124029162148027, -21.158958312148446 ], [ -45.123698162148024, -21.159005312148444 ], [ -45.123431769735028, -21.159046809062559 ], [ -45.123148769735025, -21.159094809062559 ], [ -45.122843660141406, -21.159151442829362 ], [ -45.12265727967489, -21.159189038889135 ], [ -45.122458986544551, -21.159227078795769 ], [ -45.122373781953812, -21.159243808024801 ], [ -45.122334394499177, -21.159251719180219 ], [ -45.122236404953163, -21.159267384175671 ], [ -45.122036580021096, -21.1593014094497 ], [ -45.121704580021095, -21.159361409449698 ], [ -45.120864489139436, -21.159550917113965 ], [ -45.12086398387784, -21.159551054200442 ], [ -45.120755521494516, -21.159569934689394 ], [ -45.120591207949474, -21.159597902952378 ], [ -45.120456729085163, -21.159618017312425 ], [ -45.120391249475929, -21.159628033106411 ], [ -45.12018177796098, -21.159660784353047 ], [ -45.12007228061568, -21.159675696442875 ], [ -45.11974103814525, -21.159717427777732 ], [ -45.119076926417861, -21.15984238696732 ], [ -45.118974041463169, -21.159852444966965 ], [ -45.118420053939694, -21.159922265776675 ], [ -45.118312513772494, -21.159938881424825 ], [ -45.117543635232835, -21.1599997634689 ], [ -45.117150635232839, -21.160047763468899 ], [ -45.116374361646699, -21.160191468053242 ], [ -45.115776101808883, -21.160096036347586 ], [ -45.115464050714692, -21.160065019220752 ], [ -45.115379400951419, -21.160056262348689 ], [ -45.115376192194248, -21.160055614798296 ], [ -45.114495230992588, -21.159918378068113 ], [ -45.114187230992592, -21.15988437806811 ], [ -45.114067894695623, -21.159872936997314 ], [ -45.114039453468195, -21.159709774166259 ], [ -45.113187040475452, -21.157066120441787 ], [ -45.113014040475448, -21.156709120441786 ], [ -45.110287586169783, -21.153281889655208 ], [ -45.110102586169788, -21.153132889655208 ], [ -45.108680416078776, -21.152176089259299 ], [ -45.108433416078775, -21.152039089259301 ], [ -45.10637354362354, -21.151181246942407 ], [ -45.106139543623541, -21.151113246942408 ], [ -45.104493962880781, -21.150781763240108 ], [ -45.10419896288078, -21.150747763240108 ], [ -45.103000903403355, -21.150682140963422 ], [ -45.102435903403354, -21.150685140963422 ], [ -45.101838208626553, -21.150706198940341 ], [ -45.101470208626552, -21.150730198940341 ], [ -45.100600428157534, -21.150825283023483 ], [ -45.100519695965254, -21.150837703360757 ], [ -45.100108974306551, -21.150887910422604 ], [ -45.099826341720636, -21.150921053005966 ], [ -45.099646724044511, -21.150943765813874 ], [ -45.099388724044509, -21.150978765813875 ], [ -45.098291464619244, -21.151190634121342 ], [ -45.098009464619246, -21.15126163412134 ], [ -45.097794142585279, -21.151318403095352 ], [ -45.097413142585282, -21.151423403095354 ], [ -45.097164025113152, -21.151495546104151 ], [ -45.096894025113151, -21.15157754610415 ], [ -45.096251157083351, -21.15179689769267 ], [ -45.096006157083352, -21.151889897692669 ], [ -45.095262820557615, -21.152206990498545 ], [ -45.094919820557614, -21.152369990498546 ], [ -45.094460540512046, -21.152716562991703 ], [ -45.094231115088476, -21.152805666591796 ], [ -45.094230716454916, -21.152805719958909 ], [ -45.094230625337367, -21.152805481651477 ], [ -45.09422961717577, -21.152805867125029 ], [ -45.093422080594777, -21.152913976176187 ], [ -45.093152080594777, -21.153007976176184 ], [ -45.092998701878557, -21.153062779199562 ], [ -45.092777701878553, -21.153143779199564 ], [ -45.092477660164704, -21.153259253387283 ], [ -45.09224466016471, -21.153353253387284 ], [ -45.092078571878808, -21.15342200106042 ], [ -45.091916307067386, -21.153490880817106 ], [ -45.091853188415278, -21.153516344994351 ], [ -45.091793722339801, -21.153536167019507 ], [ -45.09142140176143, -21.153668502937524 ], [ -45.091164087954688, -21.153765729001307 ], [ -45.090956970773554, -21.153841483923593 ], [ -45.090732241350892, -21.15392675657796 ], [ -45.090536573418007, -21.154003704641454 ], [ -45.08987410996879, -21.154247499979679 ], [ -45.089433109968788, -21.154434499979676 ], [ -45.089358832363708, -21.154467112180825 ], [ -45.089177401761447, -21.154531502937516 ], [ -45.088870401761447, -21.154647502937515 ], [ -45.087836306063132, -21.155106662136198 ], [ -45.087542306063135, -21.155257662136197 ], [ -45.086950299495015, -21.15558981580639 ], [ -45.086856804832337, -21.155625427031797 ], [ -45.086821943454375, -21.155639890794994 ], [ -45.086644211572533, -21.155702716948575 ], [ -45.086118005591075, -21.155905591491326 ], [ -45.085937423501818, -21.155981129097292 ], [ -45.085733221233482, -21.156060095533384 ], [ -45.084960305767147, -21.156397101311654 ], [ -45.08453130576715, -21.156606101311656 ], [ -45.084096145074476, -21.156831459393324 ], [ -45.084065659884374, -21.156848206622218 ], [ -45.083853844095017, -21.156954753883173 ], [ -45.083783871252976, -21.156981600606244 ], [ -45.08377157766143, -21.15698632662102 ], [ -45.08350157766143, -21.15709032662102 ], [ -45.083223945385441, -21.157206871398262 ], [ -45.082965112926672, -21.157289044719828 ], [ -45.082720112926673, -21.157371044719827 ], [ -45.08223424135096, -21.157547756577934 ], [ -45.081878241350957, -21.157687756577932 ], [ -45.081830966766368, -21.157706486629632 ], [ -45.081673379817857, -21.157769386141268 ], [ -45.081457535407068, -21.157851500862765 ], [ -45.081277262387957, -21.157916735846335 ], [ -45.080180615834244, -21.158389404155997 ], [ -45.079787615834249, -21.158587404155998 ], [ -45.079696365027502, -21.158633965412651 ], [ -45.079427365027499, -21.158772965412648 ], [ -45.079132907482418, -21.158932578216085 ], [ -45.077406836815278, -21.159519124858722 ], [ -45.07712483681528, -21.159647124858722 ], [ -45.077077526882029, -21.159669060039064 ], [ -45.077029057702958, -21.159684504455445 ], [ -45.076707372522129, -21.15978270308959 ], [ -45.075618952914589, -21.160228655733025 ], [ -45.07561245248624, -21.160212683251935 ], [ -45.075354452486238, -21.160317683251936 ], [ -45.075224247184572, -21.16037505388821 ], [ -45.075131330936422, -21.160405154331755 ], [ -45.074861330936429, -21.160498154331755 ], [ -45.072877025743367, -21.161436416832949 ], [ -45.072669025743366, -21.161564416832949 ], [ -45.071239082451719, -21.162631244362125 ], [ -45.071019082451713, -21.162828244362125 ], [ -45.070399269671185, -21.163433640915869 ], [ -45.070215269671188, -21.163629640915868 ], [ -45.068739669336267, -21.165662404974011 ], [ -45.068593669336266, -21.165928404974011 ], [ -45.068520054144486, -21.166065028634144 ], [ -45.068410054144486, -21.166273028634144 ], [ -45.067620359802866, -21.168251700744761 ], [ -45.067574260603621, -21.168416340742073 ], [ -45.067556811002945, -21.168466226071061 ], [ -45.067411221433375, -21.168916330343695 ], [ -45.067339221433372, -21.169158330343695 ], [ -45.066983513267957, -21.170920631591187 ], [ -45.06695951326796, -21.171139631591188 ], [ -45.066900284786698, -21.172304469548592 ], [ -45.066902284786693, -21.172569469548591 ], [ -45.066914011077266, -21.172983976815182 ], [ -45.066927011077269, -21.173248976815181 ], [ -45.066930204996531, -21.173307897352434 ], [ -45.066930284786693, -21.17331846954859 ], [ -45.066982937089179, -21.174270589143713 ], [ -45.06700793708918, -21.174512589143713 ], [ -45.06739148428953, -21.176407185356137 ], [ -45.067479484289535, -21.176695185356138 ], [ -45.068004977403966, -21.177957835911482 ], [ -45.067983299437529, -21.177967261114279 ], [ -45.068083299437532, -21.178197261114278 ], [ -45.068357223925467, -21.17877589262681 ], [ -45.068493223925465, -21.179040892626812 ], [ -45.069444109031977, -21.180546475662826 ], [ -45.069593109031977, -21.180741475662824 ], [ -45.069958891262033, -21.181192419146338 ], [ -45.070106891262029, -21.181364419146341 ], [ -45.070680504141492, -21.181977055415675 ], [ -45.070889356695645, -21.182182144860743 ], [ -45.070909976544947, -21.182202542991231 ], [ -45.070591397313855, -21.182789114989596 ], [ -45.07046939731385, -21.183054114989595 ], [ -45.070301664140686, -21.183524118765391 ], [ -45.070259873587837, -21.183617284860276 ], [ -45.070246088107517, -21.183648089264604 ], [ -45.069929570334935, -21.184286097609295 ], [ -45.069262801340955, -21.184579773004973 ], [ -45.069088823433447, -21.184666423480309 ], [ -45.069042609132062, -21.184688380501331 ], [ -45.069030791742762, -21.184693705934272 ], [ -45.06914966320079, -21.184644143893141 ], [ -45.067345815667977, -21.185471499617989 ], [ -45.067087815667975, -21.185622499617988 ], [ -45.066611342327704, -21.185921182171164 ], [ -45.066599487053232, -21.185917186504582 ], [ -45.066400859950164, -21.185847398603503 ], [ -45.065824161176693, -21.185664273838551 ], [ -45.065623671566449, -21.185578930288248 ], [ -45.065585666305374, -21.185563331732176 ], [ -45.065203848355054, -21.18459855606995 ], [ -45.065211957298629, -21.184595225010142 ], [ -45.065112957298631, -21.184354225010143 ], [ -45.065071469310752, -21.184264061371564 ], [ -45.065064687818655, -21.184246925931699 ], [ -45.065044653765241, -21.184205784572011 ], [ -45.064766248233362, -21.183600740629483 ], [ -45.06465424823336, -21.183381740629482 ], [ -45.064235353080733, -21.182642009087346 ], [ -45.064099353080735, -21.182424009087345 ], [ -45.063830881135807, -21.182016184517781 ], [ -45.063694881135802, -21.181820184517782 ], [ -45.063659554201159, -21.181769605998383 ], [ -45.063498554201161, -21.181540605998382 ], [ -45.063110134503077, -21.181024413551778 ], [ -45.063098322051928, -21.181009727801701 ], [ -45.063066026520289, -21.180965797854938 ], [ -45.062041534236862, -21.179779607465662 ], [ -45.061856534236867, -21.179596607465662 ], [ -45.061777506893677, -21.179538141653314 ], [ -45.06183776298198, -21.178975366625529 ], [ -45.061849762981979, -21.178710366625531 ], [ -45.061859658510762, -21.178175358194334 ], [ -45.061857658510768, -21.177933358194334 ], [ -45.061818529699458, -21.177292316188471 ], [ -45.061820252193165, -21.177292229131027 ], [ -45.061806252193165, -21.177015229131026 ], [ -45.061766470738192, -21.176515158978582 ], [ -45.061764844492785, -21.176485654240544 ], [ -45.061763629279646, -21.176479440611594 ], [ -45.061760444630693, -21.176439408192291 ], [ -45.061735444630692, -21.176209408192289 ], [ -45.061711331045728, -21.176212029234133 ], [ -45.061236506850221, -21.173784157723428 ], [ -45.061149506850221, -21.173531157723428 ], [ -45.060904111084447, -21.172890002107639 ], [ -45.060792111084446, -21.17262500210764 ], [ -45.060682932856743, -21.172376162452327 ], [ -45.060551832856746, -21.172088062452325 ], [ -45.060550797910068, -21.172088533405152 ], [ -45.060240142942654, -21.171460275315983 ], [ -45.060144271524543, -21.171283084391444 ], [ -45.060110194973063, -21.1712027885739 ], [ -45.060011194973065, -21.170983788573899 ], [ -45.059791020366163, -21.170527852591682 ], [ -45.059667020366163, -21.170286852591683 ], [ -45.059391538480916, -21.169802465617526 ], [ -45.05913477478596, -21.169323185343821 ], [ -45.058998774785955, -21.169093185343819 ], [ -45.058896658677646, -21.16892431475943 ], [ -45.058747658677646, -21.168683314759431 ], [ -45.058634763322388, -21.168504948978136 ], [ -45.058485763322388, -21.168274948978134 ], [ -45.058377715432322, -21.168131575292833 ], [ -45.058562413079919, -21.167886455397742 ], [ -45.05867583386582, -21.167725968843534 ], [ -45.058775704062491, -21.16758808834814 ], [ -45.060551406319171, -21.163301905011057 ], [ -45.060589099166151, -21.163066324717441 ], [ -45.060637952389875, -21.162784604460608 ], [ -45.060734226573807, -21.162082424653434 ], [ -45.060804226573808, -21.161390424653433 ], [ -45.06085494407268, -21.160350555371078 ], [ -45.060853944072683, -21.160051555371076 ], [ -45.060838844492785, -21.159534654240542 ], [ -45.060824844492785, -21.159280654240543 ], [ -45.060824703208034, -21.159278185917433 ], [ -45.060810844492785, -21.158808654240541 ], [ -45.060796844492785, -21.158554654240543 ], [ -45.060762370208849, -21.158146981004613 ], [ -45.060760159828568, -21.158103404936224 ], [ -45.060735654691825, -21.157746569926761 ], [ -45.060709654691827, -21.157446569926762 ], [ -45.060688617222588, -21.157235853618261 ], [ -45.060673236246458, -21.157015893432824 ], [ -45.06064723624646, -21.156704893432824 ], [ -45.060628536571016, -21.156509098039841 ], [ -45.060616584623595, -21.156316632492452 ], [ -45.060590584623597, -21.155959632492451 ], [ -45.06057323781372, -21.155751479482998 ], [ -45.060547237813715, -21.155474479482997 ], [ -45.060496835023784, -21.15503990085039 ], [ -45.060450048180655, -21.154701384279516 ], [ -45.060422354460037, -21.154491495028488 ], [ -45.060390177878887, -21.154228155114364 ], [ -45.060365635999126, -21.154041855782694 ], [ -45.060326635999125, -21.153765855782694 ], [ -45.06024317154553, -21.153307927202547 ], [ -45.060238236246434, -21.1532488934326 ], [ -45.059960592112887, -21.151874368800147 ], [ -45.059998928447364, -21.151866602918886 ], [ -45.059984145548562, -21.151793627021629 ], [ -45.059966210248611, -21.151662888124616 ], [ -45.059957746480144, -21.151602557108635 ], [ -45.059919746480148, -21.151337557108636 ], [ -45.059724676948314, -21.150340669376348 ], [ -45.059661676948309, -21.150087669376347 ], [ -45.05960805471215, -21.149881702524031 ], [ -45.059533054712155, -21.149605702524031 ], [ -45.059356775315933, -21.149026815646781 ], [ -45.059282775315936, -21.14880781564678 ], [ -45.059219360345331, -21.148625936570046 ], [ -45.05913236034533, -21.148383936570045 ], [ -45.058927817818727, -21.147861501531366 ], [ -45.058846544829251, -21.147669929484746 ], [ -45.058764128434177, -21.147466831939745 ], [ -45.058709111084447, -21.147334002107637 ], [ -45.058597111084445, -21.147069002107639 ], [ -45.058198900228717, -21.146236241906465 ], [ -45.058180188962474, -21.146201347923466 ], [ -45.058153687818681, -21.146146925931752 ], [ -45.058059938802366, -21.146192577626657 ], [ -45.057620202754372, -21.144984440298689 ], [ -45.057484202754374, -21.144765440298691 ], [ -45.05686808386492, -21.143883075231905 ], [ -45.056707083864922, -21.143677075231903 ], [ -45.053693974404617, -21.141146983693929 ], [ -45.053410481382031, -21.140379017521635 ], [ -45.051457252893663, -21.137911724792662 ], [ -45.051383252893665, -21.13784372479266 ], [ -45.050948986505809, -21.137518467444302 ], [ -45.050883061383949, -21.13742920237247 ], [ -45.050824396043943, -21.137374346866068 ], [ -45.050600636985024, -21.137107395680733 ], [ -45.050415636985022, -21.136912395680735 ], [ -45.05037330834535, -21.13695255362094 ], [ -45.048227109795207, -21.134945733098078 ], [ -45.048030109795206, -21.134819733098077 ], [ -45.047217011003426, -21.13441785615445 ], [ -45.047224472832255, -21.134404457542104 ], [ -45.047129910945053, -21.134351795027687 ], [ -45.047031335169883, -21.134292330288819 ], [ -45.047015649586591, -21.134318332564476 ], [ -45.046062096573827, -21.133847035627092 ], [ -45.045779096573824, -21.133744035627092 ], [ -45.045752055037937, -21.133818334215984 ], [ -45.043926270852417, -21.132964094216284 ], [ -45.04368027085242, -21.132907094216282 ], [ -45.042313753963093, -21.13268875113879 ], [ -45.042067753963089, -21.132666751138792 ], [ -45.04113618401356, -21.132627083297585 ], [ -45.04089118401356, -21.132628083297583 ], [ -45.040510297541665, -21.132636895604755 ], [ -45.040202297541668, -21.132649895604757 ], [ -45.039753033857643, -21.132698271520628 ], [ -45.038508408029919, -21.129859728745821 ], [ -45.038360408029916, -21.129629728745822 ], [ -45.037987605328041, -21.129090119829701 ], [ -45.037579605328041, -21.1285391198297 ], [ -45.036828486253413, -21.127640059120594 ], [ -45.036655486253416, -21.127456059120593 ], [ -45.036181260374399, -21.126999725753059 ], [ -45.036032534236867, -21.126852607465661 ], [ -45.035967692667008, -21.126794215941342 ], [ -45.035934815137615, -21.126762578878989 ], [ -45.035867720905721, -21.126704188763668 ], [ -45.0353363892714, -21.126225710773159 ], [ -45.035126389271397, -21.12605371077316 ], [ -45.034595008781629, -21.125647403789625 ], [ -45.034491680081977, -21.125573738831502 ], [ -45.033606087206287, -21.124860869756638 ], [ -45.033372087206288, -21.124711869756638 ], [ -45.03179381917402, -21.123894188388753 ], [ -45.031571819174019, -21.123803188388752 ], [ -45.031199096573857, -21.123659035627103 ], [ -45.031057596573852, -21.123607535627102 ], [ -45.030916096573797, -21.123556035627082 ], [ -45.030423834258734, -21.123391212167519 ], [ -45.030165834258732, -21.123312212167519 ], [ -45.027645069718716, -21.122882288722941 ], [ -45.027375069718715, -21.122871288722941 ], [ -45.026937879654668, -21.122863045361864 ], [ -45.026605879654674, -21.122864045361865 ], [ -45.026127493752554, -21.122876937298873 ], [ -45.025870271389493, -21.122890034160534 ], [ -45.025858349929315, -21.122890082621755 ], [ -45.025371281068864, -21.122903934071431 ], [ -45.02512528106886, -21.12291693407143 ], [ -45.024726766310692, -21.12294598784008 ], [ -45.024468766310697, -21.122969987840079 ], [ -45.024165163439172, -21.123006036181607 ], [ -45.023947046775504, -21.122989080115879 ], [ -45.023597969601312, -21.122968076624318 ], [ -45.023339969601309, -21.122957076624317 ], [ -45.022857821111202, -21.122948157804622 ], [ -45.022501821111199, -21.122950157804624 ], [ -45.022134352419577, -21.122958977893749 ], [ -45.021851352419581, -21.122970977893747 ], [ -45.021493696588728, -21.122992568472597 ], [ -45.02117469658873, -21.123017568472598 ], [ -45.020611724044514, -21.123077765813875 ], [ -45.020420128428604, -21.123103757467195 ], [ -45.020191647578173, -21.12313163987606 ], [ -45.020170085433378, -21.123134574434722 ], [ -45.019368084377689, -21.123186941080711 ], [ -45.019212801801451, -21.123206694341292 ], [ -45.018984895165438, -21.123229741079765 ], [ -45.018849761453438, -21.123244588963964 ], [ -45.01843100035714, -21.123274253660746 ], [ -45.018429599533427, -21.123274390326475 ], [ -45.018405075645887, -21.123275571106245 ], [ -45.017312623434321, -21.123388551342721 ], [ -45.01701762343432, -21.12343555134272 ], [ -45.015600826841307, -21.123770545447485 ], [ -45.015325001695999, -21.123794019927939 ], [ -45.015246766310725, -21.123800987840077 ], [ -45.014988766310722, -21.123824987840077 ], [ -45.014038374890561, -21.123959664320612 ], [ -45.013792374890564, -21.124006664320611 ], [ -45.013701425853782, -21.124024477983138 ], [ -45.013443386926205, -21.124076261305337 ], [ -45.013358601379878, -21.123984121322476 ], [ -45.013473612001391, -21.123890235100831 ], [ -45.01331361200139, -21.123694235100832 ], [ -45.012731300368195, -21.123041410558567 ], [ -45.012686383436588, -21.122995285099655 ], [ -45.012463026520216, -21.12267079785483 ], [ -45.012413135384271, -21.122602933514631 ], [ -45.012420020257466, -21.122613074746774 ], [ -45.012214716106833, -21.122333739278943 ], [ -45.01183113217273, -21.121669191738604 ], [ -45.011804881135994, -21.121605184518053 ], [ -45.011741274798368, -21.121513516560881 ], [ -45.0114886785951, -21.121075901294301 ], [ -45.011340678595097, -21.120868901294298 ], [ -45.010590854939323, -21.119942306359835 ], [ -45.010380854939328, -21.119712306359837 ], [ -45.009805064962883, -21.119131296406099 ], [ -45.009620064962881, -21.1189592964061 ], [ -45.008895315436575, -21.118346936387081 ], [ -45.008685315436573, -21.118185936387079 ], [ -45.008592830778873, -21.118117548841557 ], [ -45.008588353640441, -21.118113758107736 ], [ -45.00836635364044, -21.117929758107735 ], [ -45.007257104503914, -21.117153044628196 ], [ -45.007261090747001, -21.117147007491926 ], [ -45.00715689414799, -21.117078207823681 ], [ -45.007061926616927, -21.117012018332332 ], [ -45.006296920493945, -21.116528734689176 ], [ -45.006075920493942, -21.116402734689174 ], [ -45.002234709921233, -21.115151987067275 ], [ -45.001939709921231, -21.115118987067277 ], [ -45.001577086297168, -21.115125312176978 ], [ -44.999254189165462, -21.114852561552105 ], [ -44.998997189165465, -21.114862561552105 ], [ -44.998188994978591, -21.114926899528172 ], [ -44.997906994978592, -21.114960899528171 ], [ -44.997385754250544, -21.115037724369685 ], [ -44.997127754250542, -21.115082724369685 ], [ -44.996288108320819, -21.115266674094787 ], [ -44.996031108320821, -21.115334674094786 ], [ -44.995780811060222, -21.115404392231472 ], [ -44.995725469197652, -21.115420584850522 ], [ -44.995709720755464, -21.115424437473717 ], [ -44.99444803668932, -21.115823214819969 ], [ -44.994215036689319, -21.11591421481997 ], [ -44.992838013771781, -21.116577415571076 ], [ -44.99254301377178, -21.116748415571074 ], [ -44.991848576221123, -21.117190098653868 ], [ -44.991651576221123, -21.11732709865387 ], [ -44.989448990654076, -21.119421437220495 ], [ -44.989288990654074, -21.119628437220495 ], [ -44.988855650996079, -21.120234449201355 ], [ -44.988719650996082, -21.120440449201354 ], [ -44.987545576034016, -21.122887228811056 ], [ -44.987471576034018, -21.123117228811058 ], [ -44.986991134927273, -21.126128052648919 ], [ -44.986989405661014, -21.12646093640361 ], [ -44.986347339103872, -21.126870598055323 ], [ -44.984315290963202, -21.129398339842147 ], [ -44.983370254769056, -21.131976470025844 ], [ -44.981922538582552, -21.134945451721848 ], [ -44.980911903744904, -21.13946998235766 ], [ -44.980919560407251, -21.1400103385416 ], [ -44.98043308540214, -21.140841652578395 ], [ -44.980281768689835, -21.141100361359836 ], [ -44.979168156176009, -21.143907588105172 ], [ -44.979012891503913, -21.145988099455042 ], [ -44.977674979633839, -21.147962852591682 ], [ -44.97755097963384, -21.148203852591681 ], [ -44.977531669355741, -21.148241579350699 ], [ -44.977420669355737, -21.1484595793507 ], [ -44.976628323051621, -21.150580669376602 ], [ -44.976565323051624, -21.150833669376603 ], [ -44.976546024884449, -21.150919676907908 ], [ -44.976297812501372, -21.151247500001098 ], [ -44.976161812501374, -21.151442500001099 ], [ -44.974922210936732, -21.153868668613395 ], [ -44.974810210936731, -21.154189668613395 ], [ -44.974337926355133, -21.156175893060876 ], [ -44.974299926355137, -21.156463893060877 ], [ -44.974287479486826, -21.156647552452551 ], [ -44.974037189089053, -21.156968087592553 ], [ -44.974005223942449, -21.156983801873256 ], [ -44.972356567847399, -21.158003682799656 ], [ -44.972146567847396, -21.158163682799657 ], [ -44.970626130060438, -21.159596465597772 ], [ -44.970429130060438, -21.15982546559777 ], [ -44.969488564364568, -21.161113919195042 ], [ -44.969340564364572, -21.161354919195045 ], [ -44.968704585130936, -21.162570319958501 ], [ -44.968593585130932, -21.162823319958502 ], [ -44.968538860528177, -21.162950436242433 ], [ -44.968451860528177, -21.163156436242431 ], [ -44.968105156868404, -21.164231330143178 ], [ -44.968092285685138, -21.164227139525369 ], [ -44.967980285685137, -21.164571139525371 ], [ -44.967972173505473, -21.164643621740581 ], [ -44.967914757670613, -21.164821629468385 ], [ -44.967851757670616, -21.165097629468384 ], [ -44.967919627291749, -21.165113121447121 ], [ -44.967692606423995, -21.167141549819828 ], [ -44.967222665182447, -21.168507141132974 ], [ -44.967122665182444, -21.169035141132973 ], [ -44.96694812133051, -21.170846739513951 ], [ -44.966945121330511, -21.171455739513952 ], [ -44.967266604770359, -21.174020683958457 ], [ -44.967338604770354, -21.174297683958457 ], [ -44.967512094676792, -21.174852225257744 ], [ -44.967526148912384, -21.175172170495017 ], [ -44.967561148912388, -21.175552170495017 ], [ -44.967740777898008, -21.176334669501685 ], [ -44.968033512652433, -21.177892271885337 ], [ -44.968165512652433, -21.178364271885339 ], [ -44.968872024605567, -21.180183500765601 ], [ -44.969006024605569, -21.1804485007656 ], [ -44.970156505003864, -21.182226689592166 ], [ -44.97043650500386, -21.182572689592167 ], [ -44.97074361469938, -21.182925873390609 ], [ -44.970837533497544, -21.183061003959814 ], [ -44.970760064066667, -21.183133284050818 ], [ -44.970617647279056, -21.183268803850346 ], [ -44.9704984635991, -21.183384469192884 ], [ -44.97036137518738, -21.183506686997234 ], [ -44.970364667261492, -21.183510379627894 ], [ -44.970059163146445, -21.183788048750831 ], [ -44.9696616903991, -21.184043197208343 ], [ -44.969427690399094, -21.18420319720834 ], [ -44.967801165940621, -21.185592508606007 ], [ -44.967530165940623, -21.185879508606007 ], [ -44.966612648605839, -21.187004712424823 ], [ -44.966476648605841, -21.187198712424824 ], [ -44.966540951701219, -21.187243790883439 ], [ -44.965631087388154, -21.188489829183503 ], [ -44.96545808738815, -21.188822829183501 ], [ -44.96478368201106, -21.190461531746397 ], [ -44.964708682011064, -21.1907025317464 ], [ -44.964331293857995, -21.192457300537317 ], [ -44.964293293857992, -21.192767300537316 ], [ -44.964219086085556, -21.193942506581372 ], [ -44.964218086085559, -21.194183506581371 ], [ -44.964272001744774, -21.195262843296025 ], [ -44.964296001744771, -21.195492843296027 ], [ -44.964429953900968, -21.196384702399488 ], [ -44.964488953900968, -21.196684702399487 ], [ -44.964945253235484, -21.198070081128169 ], [ -44.964899233970556, -21.198085210749515 ], [ -44.964971233970559, -21.198304210749516 ], [ -44.965198307282861, -21.198838383135058 ], [ -44.965238075320343, -21.198959123598694 ], [ -44.964180419792775, -21.199283862479984 ], [ -44.963805119792774, -21.199433962479986 ], [ -44.961404261313966, -21.20080594464612 ], [ -44.96107386131397, -21.20106124464612 ], [ -44.960393830961635, -21.201636860606836 ], [ -44.95998843096163, -21.202012260606836 ], [ -44.959455113410264, -21.202544821587541 ], [ -44.95890791640997, -21.203134067537661 ], [ -44.958795113306664, -21.203252822215742 ], [ -44.958259297123952, -21.20356799997295 ], [ -44.95727862109883, -21.20422573719069 ], [ -44.956527821098831, -21.20479633719069 ], [ -44.954972880576577, -21.20626546335766 ], [ -44.954447380576575, -21.20688106335766 ], [ -44.953732732414558, -21.207826395006212 ], [ -44.953361553405877, -21.208383134083945 ], [ -44.95246195224145, -21.209560846684109 ], [ -44.952236652241453, -21.209906146684109 ], [ -44.951485536010594, -21.211282207154234 ], [ -44.951290436010595, -21.211717707154232 ], [ -44.950763150038668, -21.213195959290381 ], [ -44.950612950038668, -21.213751459290382 ], [ -44.950298185219566, -21.217159527142101 ], [ -44.950358285219565, -21.217910327142103 ], [ -44.951239447071387, -21.22128700015729 ], [ -44.951240638314665, -21.221289593165295 ], [ -44.951155002884541, -21.221631312923407 ], [ -44.951096802884543, -21.221895012923408 ], [ -44.951028010402865, -21.22231177944127 ], [ -44.950833478558074, -21.222707103746444 ], [ -44.950684209907998, -21.223042937256192 ], [ -44.950313259219307, -21.223846586601965 ], [ -44.949412188757258, -21.227413484508606 ], [ -44.949345388757258, -21.228481884508607 ], [ -44.949346346188278, -21.228585454450901 ], [ -44.948562918059658, -21.228582092098417 ], [ -44.948032209268789, -21.228593904075225 ], [ -44.94798889145423, -21.228596019596402 ], [ -44.94792692484625, -21.228568360681251 ], [ -44.947262600023883, -21.228319936035184 ], [ -44.947056033233629, -21.228237486629634 ], [ -44.947000994487922, -21.228222108495867 ], [ -44.94676686083691, -21.228134554083589 ], [ -44.946497860836907, -21.22805255408359 ], [ -44.946489721252554, -21.228079255890783 ], [ -44.944992989873128, -21.227661060761694 ], [ -44.94471098987313, -21.227614060761692 ], [ -44.944645595046715, -21.227603384175652 ], [ -44.944351595046719, -21.227556384175653 ], [ -44.944282388394065, -21.227545568968637 ], [ -44.943817388394059, -21.227474568968635 ], [ -44.942811237536553, -21.227372670427897 ], [ -44.942553237536558, -21.227359670427898 ], [ -44.942242606734879, -21.227351352076042 ], [ -44.940740190793989, -21.226640702550075 ], [ -44.938126453733879, -21.226177012109517 ], [ -44.937820453733877, -21.226164012109518 ], [ -44.937244747644151, -21.226219843734036 ], [ -44.936016924512408, -21.225190209319649 ], [ -44.93579692451241, -21.22503920931965 ], [ -44.934866323806737, -21.224505653891555 ], [ -44.934890453468185, -21.22436722583377 ], [ -44.934848795258723, -21.22435996431102 ], [ -44.935082228287584, -21.221554492117704 ], [ -44.934580823444726, -21.219527408056369 ], [ -44.934879123511251, -21.21828422553714 ], [ -44.934893123511252, -21.21799722553714 ], [ -44.934904944072684, -21.217543444628923 ], [ -44.934905944072682, -21.217244444628921 ], [ -44.934345713025976, -21.21391072455889 ], [ -44.932706754210919, -21.210954145059951 ], [ -44.93247575421092, -21.210666145059953 ], [ -44.930878376099542, -21.209079650908723 ], [ -44.930658376099544, -21.208905650908722 ], [ -44.930011223052063, -21.208434651835788 ], [ -44.929803223052062, -21.208295651835787 ], [ -44.929592825175213, -21.208209333296335 ], [ -44.927333736674967, -21.206807723085845 ], [ -44.92683624360216, -21.206662238523766 ], [ -44.926233517955993, -21.206097711541993 ], [ -44.924572009838386, -21.205259914003658 ], [ -44.924085135954996, -21.204955728089999 ], [ -44.923853135955, -21.204839728090001 ], [ -44.922030849846621, -21.204279821223484 ], [ -44.922025796168967, -21.204276277334962 ], [ -44.921805796168968, -21.204172277334962 ], [ -44.919881044620411, -21.203492815363312 ], [ -44.919717486997754, -21.203453288937837 ], [ -44.919606528388236, -21.203426366571577 ], [ -44.919456856525038, -21.203391267010051 ], [ -44.919446256525035, -21.203388867010052 ], [ -44.917272722012946, -21.203142060281092 ], [ -44.916696722012951, -21.20314006028109 ], [ -44.916696597714036, -21.203175858367846 ], [ -44.913909477674757, -21.203563525827484 ], [ -44.913896416511193, -21.20350165715795 ], [ -44.913626416511192, -21.203558657157949 ], [ -44.913426420136545, -21.20363071550215 ], [ -44.913182028558914, -21.203664708534642 ], [ -44.912948028558908, -21.203744708534643 ], [ -44.912816936993949, -21.203790545261654 ], [ -44.912595936993952, -21.203869545261654 ], [ -44.912615061860564, -21.203923046470774 ], [ -44.912490187939667, -21.203968038326195 ], [ -44.912042392433953, -21.203626526864909 ], [ -44.909376443714699, -21.202607326988002 ], [ -44.909119443714694, -21.202549326988002 ], [ -44.907892925312531, -21.202351637434507 ], [ -44.907647925312531, -21.202327637434507 ], [ -44.904283416433948, -21.202569701838726 ], [ -44.904177295774467, -21.202615921524487 ], [ -44.904097639329308, -21.202623074348132 ], [ -44.900780076391761, -21.203513286690399 ], [ -44.898677241139715, -21.204974754497975 ], [ -44.898313592930442, -21.205188887041786 ], [ -44.898042592930445, -21.205359887041784 ], [ -44.897715151287478, -21.205631140403653 ], [ -44.897223217206957, -21.20586776879135 ], [ -44.896123695045183, -21.205754174147497 ], [ -44.8958853870204, -21.205698486657475 ], [ -44.895626914918225, -21.205702850432928 ], [ -44.895531876662744, -21.20569303177064 ], [ -44.895355043037988, -21.205707440436363 ], [ -44.893427561569446, -21.205739982038509 ], [ -44.893193561569447, -21.205772982038511 ], [ -44.890463822259562, -21.206565957390904 ], [ -44.889468598676039, -21.207200973198074 ], [ -44.88944174161918, -21.207185784544155 ], [ -44.886429317534173, -21.206557132085372 ], [ -44.883368377476742, -21.206874226309061 ], [ -44.88311037747674, -21.206942226309064 ], [ -44.880879103982508, -21.207912647758917 ], [ -44.880867218759086, -21.207916558573828 ], [ -44.880659319376889, -21.20778990309757 ], [ -44.880054394994715, -21.207605968281936 ], [ -44.879366451905923, -21.206743424454192 ], [ -44.878922835791123, -21.206465971393936 ], [ -44.878855034381495, -21.206382257757905 ], [ -44.878893591112792, -21.206349013962022 ], [ -44.878674591112798, -21.20609501396202 ], [ -44.878432735423445, -21.205860849995695 ], [ -44.878368446479058, -21.205781473160897 ], [ -44.878197446479057, -21.205619473160898 ], [ -44.878190740732748, -21.20562655144867 ], [ -44.877382886477548, -21.204844389337385 ], [ -44.877138886477546, -21.204647389337385 ], [ -44.875278172371402, -21.203458427275375 ], [ -44.875020362104131, -21.203331350583351 ], [ -44.874913165199352, -21.20327779180413 ], [ -44.874844041628862, -21.203243182609032 ], [ -44.87173809151615, -21.202421574553654 ], [ -44.871750631962144, -21.202357566027221 ], [ -44.871505631962144, -21.202309566027218 ], [ -44.871323118561151, -21.202311802950693 ], [ -44.870896866850956, -21.202199047811039 ], [ -44.870651866850956, -21.202186047811036 ], [ -44.870156013408604, -21.202172057845765 ], [ -44.8698620134086, -21.202171057845767 ], [ -44.869861473750987, -21.202329717183666 ], [ -44.867420430583223, -21.202359635133437 ], [ -44.867113430583224, -21.202427635133439 ], [ -44.864334896525236, -21.203497008025558 ], [ -44.861994332485914, -21.205336999838469 ], [ -44.860299201612129, -21.207784517195819 ], [ -44.859399757081995, -21.210622616811936 ], [ -44.859375723948766, -21.213599734932245 ], [ -44.859411723948767, -21.213852734932246 ], [ -44.860452432927083, -21.217081679514639 ], [ -44.860597432927079, -21.217358679514636 ], [ -44.861111482622313, -21.218221039404984 ], [ -44.86138416058877, -21.218740909248481 ], [ -44.861487699510839, -21.218905319954402 ], [ -44.861501541659948, -21.218928806223797 ], [ -44.861699891219011, -21.219275703288133 ], [ -44.861963688180843, -21.219652989339384 ], [ -44.862011714134674, -21.219736212396363 ], [ -44.862662601416076, -21.220724110133194 ], [ -44.86277741464459, -21.220877749091159 ], [ -44.862883070236563, -21.221028607848766 ], [ -44.862913240092638, -21.221007478057867 ], [ -44.863893389830494, -21.222362937365574 ], [ -44.864076389830494, -21.222559937365574 ], [ -44.86498096416134, -21.223389161783377 ], [ -44.864974507770782, -21.223396439217819 ], [ -44.86516950777078, -21.223569439217819 ], [ -44.865239926703033, -21.223626553068478 ], [ -44.865258343380482, -21.223643435659678 ], [ -44.865265348041916, -21.223648891213294 ], [ -44.865260317784333, -21.223656026900361 ], [ -44.86521564860589, -21.223624712424755 ], [ -44.865079648605892, -21.223818712424752 ], [ -44.864949388708787, -21.224097096278133 ], [ -44.864650254435688, -21.224521434103337 ], [ -44.86451425443569, -21.224785434103339 ], [ -44.864605347592935, -21.224832360881315 ], [ -44.864388766607647, -21.225295225128828 ], [ -44.863074377476742, -21.225488226309061 ], [ -44.86281637747674, -21.225556226309063 ], [ -44.861809696356765, -21.225879352686423 ], [ -44.861391696356769, -21.226038352686423 ], [ -44.858128536162418, -21.228070046077001 ], [ -44.857907536162415, -21.228276046076999 ], [ -44.856335709046903, -21.230150134469369 ], [ -44.856038709046906, -21.230608134469371 ], [ -44.855830967676724, -21.230942744995811 ], [ -44.855694967676726, -21.231171744995809 ], [ -44.854530131673933, -21.23411319006658 ], [ -44.854479131673926, -21.234343190066582 ], [ -44.854242077882056, -21.236468533114547 ], [ -44.85424048087453, -21.236873174896534 ], [ -44.854239083981739, -21.237214016737568 ], [ -44.85427073725544, -21.23805107653871 ], [ -44.854316737255445, -21.238627076538709 ], [ -44.854358541224485, -21.239041543753004 ], [ -44.854393541224482, -21.239328543753004 ], [ -44.854669845130807, -21.240739928870241 ], [ -44.85474184513081, -21.24100492887024 ], [ -44.854807221433298, -21.241234669656045 ], [ -44.854879221433293, -21.241476669656045 ], [ -44.855468186585483, -21.242992532599899 ], [ -44.855602186585486, -21.243268532599899 ], [ -44.856240549591902, -21.244392176802489 ], [ -44.856422549591905, -21.244669176802489 ], [ -44.858238896882099, -21.246741991671129 ], [ -44.858519896882093, -21.24698499167113 ], [ -44.859719624389832, -21.247874975786051 ], [ -44.859939624389838, -21.248013975786051 ], [ -44.860043922257994, -21.248078979793622 ], [ -44.860287922257989, -21.24822897979362 ], [ -44.860505987866553, -21.248340923654229 ], [ -44.861642220929802, -21.249789323568152 ], [ -44.861874220929799, -21.250020323568155 ], [ -44.864363789085125, -21.251830612719509 ], [ -44.864859382151685, -21.251994666125789 ], [ -44.864889440402514, -21.252035940141855 ], [ -44.865585308890601, -21.252800945292201 ], [ -44.865616873585807, -21.252944959214073 ], [ -44.866075667051661, -21.254455892667764 ], [ -44.866197667051658, -21.254766892667764 ], [ -44.8664687327378, -21.255393986433376 ], [ -44.866552439807116, -21.255570796263459 ], [ -44.866672348879732, -21.255828511285195 ], [ -44.866689975187739, -21.255820310155773 ], [ -44.866968395203827, -21.256521591920656 ], [ -44.867078395203826, -21.256728591920655 ], [ -44.868595709772308, -21.25885624823929 ], [ -44.868650891684304, -21.25890172052387 ], [ -44.86876917108323, -21.259049770927973 ], [ -44.869469941528948, -21.259837838142115 ], [ -44.869640941528949, -21.260010838142112 ], [ -44.870088610251806, -21.260436595836964 ], [ -44.870189254850025, -21.260526559783944 ], [ -44.868583118864002, -21.262152184518051 ], [ -44.868447118864005, -21.262348184518054 ], [ -44.866916082597648, -21.265813468485629 ], [ -44.866866082597646, -21.266031468485629 ], [ -44.866739936585141, -21.266678724581123 ], [ -44.866702936585142, -21.266908724581121 ], [ -44.866652110586735, -21.267530491623649 ], [ -44.866626664395099, -21.267720306458543 ], [ -44.866625677445747, -21.267853854792421 ], [ -44.866576065636828, -21.268460768353847 ], [ -44.86657506563683, -21.268736768353847 ], [ -44.866619151354477, -21.268736928084707 ], [ -44.866608109394662, -21.270231062843525 ], [ -44.867215558719657, -21.272667299127292 ], [ -44.867300558719663, -21.272886299127293 ], [ -44.867902495830599, -21.274162160503234 ], [ -44.868012495830598, -21.274358160503233 ], [ -44.868092487154414, -21.274498037918526 ], [ -44.868226487154409, -21.274728037918528 ], [ -44.868255669941163, -21.274777797263638 ], [ -44.868500669941163, -21.275192797263639 ], [ -44.868654518991434, -21.275426919440033 ], [ -44.868781070742934, -21.275656957554375 ], [ -44.868940070742937, -21.275921957554374 ], [ -44.869633119625426, -21.27693134494978 ], [ -44.869804119625421, -21.277150344949781 ], [ -44.870074777878941, -21.277482084938075 ], [ -44.870270777878943, -21.277712084938074 ], [ -44.870701553292385, -21.278137737555564 ], [ -44.870567751830791, -21.278734924215385 ], [ -44.870529751830787, -21.278964924215387 ], [ -44.870448067933523, -21.27996043165734 ], [ -44.869823806684053, -21.280259653992175 ], [ -44.869614806684048, -21.280396653992174 ], [ -44.868003938357951, -21.281710994641646 ], [ -44.867982272066556, -21.281732796347367 ], [ -44.867953960575335, -21.281759132618266 ], [ -44.866168162245664, -21.283972734088202 ], [ -44.866045162245669, -21.284179734088202 ], [ -44.86562065778363, -21.284973445026999 ], [ -44.865521657783631, -21.285180445026999 ], [ -44.865550873394525, -21.285194417710471 ], [ -44.864879987261972, -21.286618277647481 ], [ -44.864780987261973, -21.286916277647482 ], [ -44.864279725036582, -21.289651358281183 ], [ -44.864266725036579, -21.289962358281183 ], [ -44.864258044820232, -21.290350060014507 ], [ -44.864257044820235, -21.29068406001451 ], [ -44.864265043885155, -21.291115014961072 ], [ -44.864277043885153, -21.29141401496107 ], [ -44.864565211113757, -21.293428881050719 ], [ -44.864625211113761, -21.293669881050718 ], [ -44.86469571389236, -21.293937244075416 ], [ -44.864756713892355, -21.294156244075417 ], [ -44.865018204871042, -21.294751023916618 ], [ -44.86609007796303, -21.298537586705685 ], [ -44.866212077963034, -21.298756586705686 ], [ -44.867323248667176, -21.300180614054415 ], [ -44.867262119625551, -21.300228344949936 ], [ -44.867373309827094, -21.300370746436119 ], [ -44.867462, -21.300489 ], [ -44.86801047682151, -21.301157943118696 ], [ -44.868206476821513, -21.301376943118697 ], [ -44.868545941528879, -21.301737838142042 ], [ -44.868716941528881, -21.301910838142042 ], [ -44.870487624389717, -21.303334975785972 ], [ -44.870707624389716, -21.303473975785973 ], [ -44.870990304213109, -21.303646099752246 ], [ -44.87118664079744, -21.303761239511871 ], [ -44.871707570688272, -21.30410757276125 ], [ -44.871857606979091, -21.304190926256151 ], [ -44.871841027594911, -21.304464507504143 ], [ -44.871838027594912, -21.305741507504145 ], [ -44.871847438416445, -21.306199372242698 ], [ -44.871859438416443, -21.306475372242698 ], [ -44.872109513221844, -21.308021508526576 ], [ -44.872107079911309, -21.308040383124489 ], [ -44.872083555369308, -21.308238408192288 ], [ -44.872058555369307, -21.30846840819229 ], [ -44.872047786282607, -21.30857255639005 ], [ -44.872021786282609, -21.308837556390049 ], [ -44.871974038687412, -21.309786183695952 ], [ -44.871970038687415, -21.311224183695952 ], [ -44.872002059570661, -21.31205210224169 ], [ -44.872026059570658, -21.312351102241692 ], [ -44.872248849945514, -21.313794223220185 ], [ -44.872309849945516, -21.314059223220184 ], [ -44.873763868715912, -21.317406808709841 ], [ -44.87391086871591, -21.317624808709841 ], [ -44.874352086322816, -21.318229067010193 ], [ -44.874498086322816, -21.318414067010192 ], [ -44.874781619482007, -21.318757339686567 ], [ -44.874940619482004, -21.318941339686567 ], [ -44.875387625663258, -21.319407429656078 ], [ -44.875401145702199, -21.319423039155581 ], [ -44.875408941655472, -21.319429655680185 ], [ -44.87565823197415, -21.319689588812889 ], [ -44.875891231974151, -21.31990858881289 ], [ -44.875927625244039, -21.319869869032598 ], [ -44.877728976362803, -21.321398698616466 ], [ -44.878869559667478, -21.32187720671325 ], [ -44.880010945137634, -21.322601853257023 ], [ -44.880131945886134, -21.322664817447418 ], [ -44.880266145074472, -21.322738540606679 ], [ -44.880444775267179, -21.322829525017571 ], [ -44.881002000691652, -21.323213114774305 ], [ -44.881235000691653, -21.323351114774304 ], [ -44.881683446234142, -21.323601391226589 ], [ -44.881904446234145, -21.323717391226587 ], [ -44.882693938695482, -21.32408879877141 ], [ -44.882731818241595, -21.324104639308874 ], [ -44.883383775457624, -21.324430120823155 ], [ -44.883534878765815, -21.324489739815501 ], [ -44.883688781311648, -21.324555996165742 ], [ -44.88389085945343, -21.324639805652975 ], [ -44.884113226353996, -21.324759208891411 ], [ -44.884241886120208, -21.324827093705153 ], [ -44.884416129804578, -21.324917415941538 ], [ -44.884603967065956, -21.325018615086236 ], [ -44.885211212412194, -21.325319683466684 ], [ -44.885517212412196, -21.325458683466685 ], [ -44.886211701878594, -21.325743220800451 ], [ -44.88643270187859, -21.325824220800449 ], [ -44.886886254463143, -21.325955356835276 ], [ -44.887016722401711, -21.326017129410271 ], [ -44.887018068261021, -21.326014286862595 ], [ -44.887896917959317, -21.326423080017353 ], [ -44.888191917959318, -21.326538080017354 ], [ -44.888460636030018, -21.326638419115948 ], [ -44.888754636030022, -21.32674341911595 ], [ -44.889298663099218, -21.32690132603582 ], [ -44.889433939355015, -21.326948183775027 ], [ -44.889487811691708, -21.326956227479755 ], [ -44.889916556285243, -21.327080673011988 ], [ -44.890173556285241, -21.327138673011987 ], [ -44.890191034591979, -21.327061226032146 ], [ -44.890275854383994, -21.327073890516441 ], [ -44.890502366122995, -21.327177514732494 ], [ -44.890646818223018, -21.327227731986152 ], [ -44.890840862986586, -21.327299294593992 ], [ -44.892107677772096, -21.327673502324327 ], [ -44.892144513806713, -21.327681783293347 ], [ -44.892144030837322, -21.3276981656395 ], [ -44.892141501098834, -21.328716807003151 ], [ -44.892136454498335, -21.328841807415529 ], [ -44.892123781343678, -21.329144013411327 ], [ -44.892115013935275, -21.329546305532372 ], [ -44.89211401393527, -21.330145305532373 ], [ -44.892126706151863, -21.330665946019892 ], [ -44.892137706151864, -21.330883946019892 ], [ -44.892224360424244, -21.331786177794942 ], [ -44.892273360424248, -21.332131177794942 ], [ -44.892301334384598, -21.332127204681733 ], [ -44.892659024156607, -21.334892824939075 ], [ -44.892756024156604, -21.335191824939074 ], [ -44.893821027362065, -21.33745844367126 ], [ -44.894935788487452, -21.338808172128889 ], [ -44.894905324373127, -21.339047074920185 ], [ -44.894890532250372, -21.339169495156256 ], [ -44.894792236360793, -21.33955670355661 ], [ -44.894749709074013, -21.339752329075793 ], [ -44.894708423439553, -21.339936008020949 ], [ -44.894603353780219, -21.340556890501883 ], [ -44.894244417469729, -21.341960737697498 ], [ -44.894496080998756, -21.345212059310391 ], [ -44.895780445096925, -21.34820953084915 ], [ -44.897960925004845, -21.350634388398262 ], [ -44.900805639183645, -21.352228762257575 ], [ -44.900852639183647, -21.352245762257574 ], [ -44.903789386006544, -21.352831200860784 ], [ -44.904047386006539, -21.352843200860782 ], [ -44.905033352749506, -21.352774873296863 ], [ -44.905105852833707, -21.352777958406829 ], [ -44.905416781351313, -21.352772508057139 ], [ -44.905416969601326, -21.352776923375682 ], [ -44.905592965372861, -21.352769419679994 ], [ -44.905677977621195, -21.352767929477409 ], [ -44.906180222166348, -21.352834913698395 ], [ -44.906411480821355, -21.352854613509749 ], [ -44.906606414812913, -21.352872746904314 ], [ -44.906698510994346, -21.352881768571066 ], [ -44.906762353798733, -21.352889692323384 ], [ -44.907163609276608, -21.352946897788659 ], [ -44.908558388727222, -21.353046986203271 ], [ -44.909160388727223, -21.353047986203272 ], [ -44.910277761798405, -21.352987231532829 ], [ -44.910584761798404, -21.35295323153283 ], [ -44.91125869758654, -21.352841607884361 ], [ -44.912125983809887, -21.353177555142722 ], [ -44.912370983809886, -21.353258555142723 ], [ -44.913215196308578, -21.353497132898397 ], [ -44.913461196308582, -21.353555132898396 ], [ -44.914619618394873, -21.353757222033124 ], [ -44.914925618394868, -21.353792222033125 ], [ -44.915690807659082, -21.353835840659638 ], [ -44.915841119774228, -21.353848069441888 ], [ -44.916635686807986, -21.35388098669398 ], [ -44.917248686807987, -21.353881986693981 ], [ -44.918534710222751, -21.353586871234651 ], [ -44.918541091965707, -21.353672053629758 ], [ -44.918848091965707, -21.353649053629759 ], [ -44.919552212408419, -21.353534881254767 ], [ -44.919554852565881, -21.353547610585377 ], [ -44.919681470377341, -21.353521349113372 ], [ -44.919938489139369, -21.353591082886016 ], [ -44.920081017324897, -21.353628627859123 ], [ -44.920351017324897, -21.353697627859123 ], [ -44.921802378298644, -21.353956369017439 ], [ -44.921859615947781, -21.353962264740954 ], [ -44.922526282586986, -21.354657136719528 ], [ -44.922710282586991, -21.354796136719528 ], [ -44.923738503674898, -21.355477544815155 ], [ -44.923958503674896, -21.355604544815154 ], [ -44.92532045640948, -21.356177963895089 ], [ -44.926523932045974, -21.356824478840323 ], [ -44.926781932045976, -21.356917478840323 ], [ -44.927357832130092, -21.357077094863641 ], [ -44.927411214465472, -21.357096339279217 ], [ -44.927507293225304, -21.357139537481313 ], [ -44.928468983810014, -21.357513555142766 ], [ -44.928713983810013, -21.357594555142764 ], [ -44.929437444401032, -21.35780386990578 ], [ -44.929670444401033, -21.357861869905783 ], [ -44.929777227075412, -21.357887828754027 ], [ -44.930072227075414, -21.357957828754024 ], [ -44.930625735018744, -21.358072747068643 ], [ -44.930883735018746, -21.358118747068644 ], [ -44.932601963216953, -21.358273931413599 ], [ -44.932871963216954, -21.3582749314136 ], [ -44.934754307355107, -21.358103267434558 ], [ -44.934999307355106, -21.358057267434557 ], [ -44.937050332999874, -21.357433907980322 ], [ -44.937571713376627, -21.357467986737284 ], [ -44.937961428736088, -21.357468621452853 ], [ -44.937995386006548, -21.357470200860782 ], [ -44.938168728706579, -21.357474444033265 ], [ -44.938878493625644, -21.357780352692881 ], [ -44.938920638435853, -21.357794229642582 ], [ -44.939209850846105, -21.35790342208319 ], [ -44.940150800620039, -21.358100166022272 ], [ -44.940136517870521, -21.358148396176439 ], [ -44.940369517870522, -21.358217396176439 ], [ -44.942458769180604, -21.358600817974551 ], [ -44.942777769180601, -21.358624817974551 ], [ -44.943509822343096, -21.358652983478624 ], [ -44.943949455515501, -21.358653782630043 ], [ -44.944576888711445, -21.358654981737917 ], [ -44.945221464507355, -21.358633397997238 ], [ -44.945688277363971, -21.358633991906725 ], [ -44.946404840021657, -21.358602471021346 ], [ -44.946610604084093, -21.358595891356558 ], [ -44.946656904433006, -21.358588422396419 ], [ -44.946837753963258, -21.358572248861194 ], [ -44.94683660787058, -21.358559433461277 ], [ -44.949130482129561, -21.358189396176414 ], [ -44.949363482129556, -21.358120396176414 ], [ -44.950231699540147, -21.357819247391983 ], [ -44.95048969954015, -21.357716247391984 ], [ -44.950518500113539, -21.357704697650391 ], [ -44.950801500113542, -21.357590697650391 ], [ -44.952575090747004, -21.356659992508074 ], [ -44.952784090747002, -21.356521992508075 ], [ -44.954601756810327, -21.354968167746616 ], [ -44.954817082102288, -21.355055104583471 ], [ -44.955123082102283, -21.355159104583471 ], [ -44.956326430923717, -21.35548597378439 ], [ -44.956608430923723, -21.355543973784393 ], [ -44.957278724044613, -21.355658234186141 ], [ -44.957536724044608, -21.355693234186138 ], [ -44.958862060640008, -21.355783982065013 ], [ -44.959390060640011, -21.355784982065014 ], [ -44.961052989873053, -21.355648939238321 ], [ -44.961217784836577, -21.355621473411066 ], [ -44.961408033335637, -21.355716564075397 ], [ -44.961665033335635, -21.355832564075396 ], [ -44.963018286894098, -21.356329371553887 ], [ -44.963300286894103, -21.356410371553888 ], [ -44.964970366209229, -21.356739347978539 ], [ -44.965289366209227, -21.35677434797854 ], [ -44.96638, -21.356834 ], [ -44.966675, -21.356834 ], [ -44.967324328662315, -21.356812509664024 ], [ -44.967629326038043, -21.356812987716339 ], [ -44.968070969601307, -21.356803923375683 ], [ -44.968116081503638, -21.356802 ], [ -44.968149, -21.356802 ], [ -44.97110583728071, -21.356354858906915 ], [ -44.971272250386981, -21.356303350088307 ], [ -44.971389654311515, -21.35627041971923 ], [ -44.974279217156443, -21.354933530144898 ], [ -44.974500217156447, -21.354784530144897 ], [ -44.975942534236729, -21.353602392534473 ], [ -44.976127534236731, -21.353419392534473 ], [ -44.977504408030043, -21.351721271253997 ], [ -44.977652408030039, -21.351491271253998 ], [ -44.9776830872242, -21.3514319192522 ], [ -44.977829862455472, -21.351330839203253 ], [ -44.978025862455475, -21.351181839203253 ], [ -44.97840034366029, -21.350866582755405 ], [ -44.978414882175194, -21.350863884175901 ], [ -44.978561123337258, -21.35085196822936 ], [ -44.978876867406775, -21.350820917930285 ], [ -44.979138777833519, -21.350803913698407 ], [ -44.97940877783352, -21.350780913698408 ], [ -44.97966076179852, -21.350756231532817 ], [ -44.97996776179852, -21.350722231532814 ], [ -44.982114394092008, -21.350241035293397 ], [ -44.98234739409201, -21.3501610352934 ], [ -44.985647632234858, -21.34826134056636 ], [ -44.985819632234858, -21.34811234056636 ], [ -44.986111848931891, -21.347820671051714 ], [ -44.986192861821358, -21.347791064945664 ], [ -44.986351716442151, -21.347741337334167 ], [ -44.986695716442149, -21.347627337334167 ], [ -44.986917473323459, -21.347516824337337 ], [ -44.986990604805385, -21.3475125612676 ], [ -44.987322571477776, -21.347519977040896 ], [ -44.988570288601174, -21.347522650720446 ], [ -44.988786086273926, -21.347529687601078 ], [ -44.989324122518767, -21.347511980750962 ], [ -44.98967398890538, -21.347512960768853 ], [ -44.990318800880814, -21.347493959707034 ], [ -44.990674800880811, -21.347471959707033 ], [ -44.991816974430897, -21.347335084972787 ], [ -44.992096266874313, -21.347285180053429 ], [ -44.992326503372119, -21.347245954576028 ], [ -44.992583863566566, -21.347198635021471 ], [ -44.99281686356656, -21.34715263502147 ], [ -44.99668500878149, -21.345484596210468 ], [ -44.996894008781496, -21.345335596210468 ], [ -44.998745281467329, -21.34362583406385 ], [ -44.99904153099596, -21.343166118858786 ], [ -44.999318537388397, -21.343320046715391 ], [ -44.999552537388396, -21.343411046715392 ], [ -44.999773237720639, -21.343493893296515 ], [ -44.999994237720635, -21.343573893296515 ], [ -45.000569679804123, -21.343762694577581 ], [ -45.000803679804129, -21.343831694577581 ], [ -45.001183478091583, -21.343905749829602 ], [ -45.001264710874651, -21.343945577959733 ], [ -45.001348372394261, -21.343975086480217 ], [ -45.001409425782981, -21.34399919339765 ], [ -45.001427532209796, -21.343953336903652 ], [ -45.001687842716159, -21.344004093741663 ], [ -45.004312807836897, -21.344753042006143 ], [ -45.004546807836896, -21.344776042006146 ], [ -45.005223155285151, -21.344739686831147 ], [ -45.005674246655936, -21.345171621271891 ], [ -45.007939015400289, -21.346421547786321 ], [ -45.008173015400288, -21.346513547786319 ], [ -45.008558781598744, -21.346642304859401 ], [ -45.009711439854776, -21.347403874469716 ], [ -45.00982214996997, -21.347458434957108 ], [ -45.00994594513763, -21.347522853257022 ], [ -45.012185924724491, -21.348365612422015 ], [ -45.012414800653254, -21.348393198763059 ], [ -45.012538451923241, -21.348466931557386 ], [ -45.012580149800549, -21.348491659033829 ], [ -45.012814149800548, -21.348629659033829 ], [ -45.013685288165483, -21.34908720414796 ], [ -45.013907288165484, -21.349190204147963 ], [ -45.014757261886643, -21.349538069926801 ], [ -45.015015261886646, -21.3496300699268 ], [ -45.015217567063999, -21.349695598625637 ], [ -45.015253938357958, -21.349738005358354 ], [ -45.015413938357952, -21.349899005358353 ], [ -45.015455120868872, -21.349940204561221 ], [ -45.015640120868873, -21.350124204561222 ], [ -45.017871203371563, -21.351795273872401 ], [ -45.018080203371561, -21.351910273872402 ], [ -45.018445053531075, -21.352054455323216 ], [ -45.018799001769693, -21.352274710999247 ], [ -45.019033001769699, -21.352400710999248 ], [ -45.020370237720776, -21.352998893296562 ], [ -45.020462969418205, -21.353032461331829 ], [ -45.020478085515229, -21.353038404412711 ], [ -45.020486967748774, -21.353064222104884 ], [ -45.020500613152407, -21.353059527585284 ], [ -45.020576571884071, -21.35326201723915 ], [ -45.020358071198956, -21.354624735580284 ], [ -45.020359071198953, -21.354889735580286 ], [ -45.020499362515693, -21.356521595363596 ], [ -45.020573362515698, -21.356958595363594 ], [ -45.02064269159024, -21.357257426912561 ], [ -45.020175915807471, -21.358635102199564 ], [ -45.020127915807464, -21.358889102199562 ], [ -45.020241389021535, -21.363126165536482 ], [ -45.020303389021542, -21.363379165536482 ], [ -45.020977732737684, -21.365277986433121 ], [ -45.02098095442166, -21.365284791418659 ], [ -45.020982133233282, -21.36528759617735 ], [ -45.02109590541, -21.36554788240549 ], [ -45.021194905409999, -21.365765882405491 ], [ -45.021261732737798, -21.365909986433376 ], [ -45.0213597327378, -21.366116986433376 ], [ -45.022114825649304, -21.367344150230306 ], [ -45.022088742566176, -21.367360518695737 ], [ -45.022211742566178, -21.367556518695739 ], [ -45.022716443986994, -21.368286652769029 ], [ -45.022760392780548, -21.36834455827405 ], [ -45.023050805027047, -21.369303211426345 ], [ -45.023149805027053, -21.369522211426347 ], [ -45.0241366982114, -21.371134335658432 ], [ -45.024219162245792, -21.371292265912015 ], [ -45.024305936361323, -21.371438300399124 ], [ -45.02445478278301, -21.371750829207464 ], [ -45.024577782783012, -21.371980829207462 ], [ -45.024701901896997, -21.372125089865722 ], [ -45.024809894031577, -21.372290677805417 ], [ -45.02483197856678, -21.372276274847675 ], [ -45.025181060672786, -21.372682004576021 ], [ -45.025301307919236, -21.372901362132751 ], [ -45.02548916224567, -21.373293265911798 ], [ -45.025612162245665, -21.373500265911797 ], [ -45.025625326512099, -21.373492443666525 ], [ -45.026034502000762, -21.37423887020115 ], [ -45.026113280092083, -21.374354908200534 ], [ -45.026194591970047, -21.374481271254123 ], [ -45.027996102066325, -21.376575710152821 ], [ -45.028205102066323, -21.376759710152822 ], [ -45.028439222030229, -21.376944994550801 ], [ -45.028502806003132, -21.377036392293046 ], [ -45.028938423117026, -21.377960478900526 ], [ -45.029073423117026, -21.378179478900524 ], [ -45.031281552932882, -21.380694341604048 ], [ -45.034195804253969, -21.382339793195197 ], [ -45.03441780425397, -21.382419793195197 ], [ -45.037129250303309, -21.382825337683911 ], [ -45.037116956900888, -21.382956094782426 ], [ -45.037350956900887, -21.382978094782423 ], [ -45.037786474429716, -21.382923637121724 ], [ -45.038297209462954, -21.383000026536877 ], [ -45.038542209462953, -21.382988026536879 ], [ -45.038534474591209, -21.38283010623881 ], [ -45.041645738113353, -21.382441069926799 ], [ -45.041903738113355, -21.3823490699268 ], [ -45.044071647172487, -21.381170699261197 ], [ -45.045111505215829, -21.382085995938215 ], [ -45.045196635808708, -21.382205342258402 ], [ -45.047145890204796, -21.383835266901922 ], [ -45.047342890204796, -21.383961266901924 ], [ -45.049568334570466, -21.384732251482873 ], [ -45.050361420066551, -21.385410288826616 ], [ -45.050405685107826, -21.38580435459664 ], [ -45.050479685107831, -21.386022354596641 ], [ -45.052365653156535, -21.389326654052152 ], [ -45.054150891300537, -21.390739146807697 ], [ -45.054147155571762, -21.390879678106643 ], [ -45.054855120435505, -21.39359547578157 ], [ -45.055330451558284, -21.394394608186545 ], [ -45.055304685107735, -21.394403354596363 ], [ -45.055378685107733, -21.394621354596364 ], [ -45.055676902723171, -21.395117820231405 ], [ -45.055961508924163, -21.395920885252021 ], [ -45.05607250892416, -21.39611688525202 ], [ -45.056225110210775, -21.396030463094807 ], [ -45.057562513746788, -21.398256940879623 ], [ -45.057735513746792, -21.39844094087962 ], [ -45.057896789020845, -21.398590317447038 ], [ -45.058447689506956, -21.399535963693218 ], [ -45.060351399558982, -21.401403536992355 ], [ -45.060846437789941, -21.401679361424783 ], [ -45.060889437636497, -21.401830554433644 ], [ -45.061780077485821, -21.403776730657103 ], [ -45.062110312181346, -21.404922074068299 ], [ -45.062222312181348, -21.405152074068297 ], [ -45.064111685634707, -21.407814691321544 ], [ -45.066758006840246, -21.409726822792088 ], [ -45.066967006840244, -21.409830822792088 ], [ -45.071405269427856, -21.410864552669967 ], [ -45.07238136351625, -21.411321314996407 ], [ -45.075258, -21.411744 ], [ -45.075504, -21.411744 ], [ -45.079960761211609, -21.410695942778119 ], [ -45.080193761211603, -21.410579942778117 ], [ -45.080218398006615, -21.410560828654063 ], [ -45.082505209462958, -21.410739026536877 ], [ -45.082750209462958, -21.410727026536879 ], [ -45.085319012126249, -21.410259953830145 ], [ -45.087679353037473, -21.409143846837473 ], [ -45.087876353037473, -21.409016846837471 ], [ -45.087892686359361, -21.409002800524075 ], [ -45.087922437713772, -21.40900195394082 ], [ -45.090182932992754, -21.408676745372638 ], [ -45.090429932992755, -21.408611745372639 ], [ -45.094314999676371, -21.406599662034708 ], [ -45.094501999676368, -21.406442662034706 ], [ -45.094622470340205, -21.406316496208614 ], [ -45.094787412378608, -21.40630096595175 ], [ -45.0950006082412, -21.406278584482717 ], [ -45.0952596082412, -21.406248584482718 ], [ -45.095319543753227, -21.406241458775494 ], [ -45.095325716369715, -21.406240706017385 ], [ -45.095330756383007, -21.406240337235925 ], [ -45.095916332750747, -21.406180117559821 ], [ -45.096172973484684, -21.406146064905801 ], [ -45.096270185589354, -21.406134209771086 ], [ -45.096740617466523, -21.406086087991763 ], [ -45.097156794327411, -21.406034677918711 ], [ -45.097439794327414, -21.405993677918712 ], [ -45.098084270228597, -21.405867226628438 ], [ -45.098274342856463, -21.405839492512936 ], [ -45.098431249971298, -21.405812811950899 ], [ -45.098508042531932, -21.40580119388822 ], [ -45.098711885809735, -21.405774720735259 ], [ -45.099056580656573, -21.405707271843053 ], [ -45.099147146631111, -21.405698057749788 ], [ -45.099312054887044, -21.40567888004831 ], [ -45.099404763241779, -21.405668102327844 ], [ -45.100448391297405, -21.405490361382515 ], [ -45.100517862721453, -21.405474705850338 ], [ -45.100550164134816, -21.405471281672241 ], [ -45.100767643159962, -21.405445816646846 ], [ -45.100965960357335, -21.40542039136513 ], [ -45.100989964988912, -21.40541854485501 ], [ -45.102084334048158, -21.405226338007818 ], [ -45.102173543753224, -21.405215458775491 ], [ -45.102615418780182, -21.405133062233002 ], [ -45.102899438637849, -21.405083179096302 ], [ -45.102933150142015, -21.405073814789588 ], [ -45.103411393108203, -21.404984636708729 ], [ -45.103708393108207, -21.40490963670873 ], [ -45.10452382546805, -21.404666377654014 ], [ -45.104746825468048, -21.404589377654013 ], [ -45.105390986608867, -21.404341761847267 ], [ -45.105663162409542, -21.404226206507332 ], [ -45.105885323088664, -21.404132615412724 ], [ -45.106285704340181, -21.403953506157503 ], [ -45.106496704340174, -21.403853506157503 ], [ -45.107049419113366, -21.403566750795445 ], [ -45.107242517862623, -21.403509111277501 ], [ -45.107601517862626, -21.403366111277499 ], [ -45.107823466624694, -21.403267111648599 ], [ -45.109432326450708, -21.402774364736807 ], [ -45.109590650300376, -21.402710571244267 ], [ -45.109709866827338, -21.402665928459705 ], [ -45.111725625616508, -21.40163770236364 ], [ -45.111962625616506, -21.401480702363639 ], [ -45.113767270892488, -21.399949226026234 ], [ -45.115161430411128, -21.398036509742845 ], [ -45.115276430411129, -21.397831509742844 ], [ -45.116528174568145, -21.393670976115207 ], [ -45.116544174568148, -21.39345297611521 ], [ -45.116566411791453, -21.392418108733441 ], [ -45.116563425838827, -21.392319572296813 ], [ -45.116602701243707, -21.392229268238445 ], [ -45.116617278508457, -21.39221055076273 ], [ -45.116698571802893, -21.392008837650923 ], [ -45.117121952626142, -21.391035378390811 ], [ -45.117169183197475, -21.39084110924836 ], [ -45.117655247936689, -21.389635036450283 ], [ -45.117855756677564, -21.387723682015292 ], [ -45.11791579572494, -21.387728119684009 ], [ -45.11793279572494, -21.387498119684011 ], [ -45.117957189081089, -21.386998087488053 ], [ -45.117963189081088, -21.386745087488052 ], [ -45.117960369280063, -21.38668639559133 ], [ -45.119231915477215, -21.385367773324653 ], [ -45.119975184694404, -21.383800422696847 ], [ -45.119975961743179, -21.383800159695724 ], [ -45.121920608992404, -21.382899535860474 ], [ -45.122143608992403, -21.382765535860475 ], [ -45.12316774101194, -21.382059912117199 ], [ -45.12336774101194, -21.381902912117202 ], [ -45.124669519144817, -21.380677908181656 ], [ -45.124820519144819, -21.380507908181656 ], [ -45.125308463163556, -21.379914092401837 ], [ -45.125472463163554, -21.379698092401835 ], [ -45.127321645313678, -21.375572552928581 ], [ -45.127377645313679, -21.375286552928582 ], [ -45.127562501114788, -21.373538134218308 ], [ -45.127566501114785, -21.373307134218308 ], [ -45.12740669910103, -21.371345145618179 ], [ -45.127405580780959, -21.371338994857769 ], [ -45.127539848527725, -21.370417424243382 ], [ -45.127544848527727, -21.370176424243382 ], [ -45.127011335441921, -21.367150071049259 ], [ -45.127449378701563, -21.36567737234752 ], [ -45.127876986236117, -21.365415160452926 ], [ -45.128063986236114, -21.365269160452925 ], [ -45.129998901492016, -21.363266598000926 ], [ -45.130163901492018, -21.363039598000928 ], [ -45.130204597804614, -21.362953676593854 ], [ -45.131546655841653, -21.361460140679892 ], [ -45.131673655841652, -21.361266140679895 ], [ -45.131911877156973, -21.36072256345501 ], [ -45.132667911199356, -21.360768414093201 ], [ -45.133453911199354, -21.360782414093201 ], [ -45.133454928043086, -21.36072532558083 ], [ -45.135176918275704, -21.360742267618576 ], [ -45.137827381765469, -21.360020930261332 ], [ -45.138087381765466, -21.359909930261331 ], [ -45.138601106563804, -21.359673215047756 ], [ -45.138825106563807, -21.359562215047756 ], [ -45.140732015451583, -21.358121141107951 ], [ -45.141197643159813, -21.358122816646862 ], [ -45.141431643159812, -21.358092816646863 ], [ -45.14174218858421, -21.358006526815501 ], [ -45.141776451340199, -21.358023947945306 ], [ -45.144945667152719, -21.358498235292529 ], [ -45.148102183737009, -21.357945713431214 ], [ -45.150018963281816, -21.356910675000851 ], [ -45.1500663875416, -21.356990547438382 ], [ -45.150226387541601, -21.356895547438381 ], [ -45.150532411846854, -21.356633418809196 ], [ -45.150921862276348, -21.356423120153654 ], [ -45.151060862276353, -21.356316120153654 ], [ -45.1509980723648, -21.356234551950791 ], [ -45.1528332977242, -21.354662568616654 ], [ -45.154391925784743, -21.351924807530228 ], [ -45.155124285291301, -21.351379380278097 ], [ -45.156949433600573, -21.348775193923647 ], [ -45.157802021599828, -21.345938144763405 ], [ -45.159247019769012, -21.345873745351593 ], [ -45.159440265580862, -21.345799828950469 ], [ -45.159917004912359, -21.345897240858285 ], [ -45.162911026756134, -21.345595285014248 ], [ -45.163717851658319, -21.345251707420122 ], [ -45.164079526781869, -21.345417928583483 ], [ -45.164311526781866, -21.345490928583484 ], [ -45.164420556245673, -21.345511283596966 ], [ -45.165921390472981, -21.346096783136066 ], [ -45.168866817542714, -21.346319551837716 ], [ -45.169113817542716, -21.346301551837719 ], [ -45.172072009414215, -21.345624273749046 ], [ -45.172294009414209, -21.345536273749044 ], [ -45.172699078176976, -21.345252585793187 ], [ -45.174475704340061, -21.34474050615756 ], [ -45.174686704340061, -21.34464050615756 ], [ -45.177622114270953, -21.342524897800971 ], [ -45.177785114270954, -21.34235489780097 ], [ -45.178940515671762, -21.34090064753709 ], [ -45.179066515671764, -21.340707647537091 ], [ -45.180263982230102, -21.338138636821814 ], [ -45.180329982230099, -21.337920636821814 ], [ -45.180752334582365, -21.334657946682199 ], [ -45.180744334582371, -21.334438946682198 ], [ -45.180702976345025, -21.334198323705486 ], [ -45.180738223894537, -21.334150745330071 ], [ -45.182436055712529, -21.330493131041315 ], [ -45.182490055712528, -21.330264131041314 ], [ -45.182751540366759, -21.327638601971593 ], [ -45.182743540366765, -21.327396601971593 ], [ -45.182304151235236, -21.324777578892078 ], [ -45.181190899901999, -21.322366559155746 ], [ -45.179482296688448, -21.320333576185188 ], [ -45.179314296688446, -21.320180576185187 ], [ -45.178283409409573, -21.319422968272267 ], [ -45.178316501114786, -21.319270134218616 ], [ -45.17832050111479, -21.319039134218617 ], [ -45.178293919561554, -21.318117120665271 ], [ -45.178274919561552, -21.31786412066527 ], [ -45.177380310160522, -21.314784270654737 ], [ -45.17749413817527, -21.314739610859476 ], [ -45.177412138175271, -21.314530610859478 ], [ -45.177178413717591, -21.31408920668472 ], [ -45.177124318585939, -21.313902974691644 ], [ -45.177006318585939, -21.313681974691644 ], [ -45.176972378940455, -21.313700096312306 ], [ -45.176791065179614, -21.313357673222441 ], [ -45.176777489418171, -21.313311242145875 ], [ -45.176756663460118, -21.313237335060013 ], [ -45.176764710999251, -21.31323300176971 ], [ -45.176755966692539, -21.313216762342954 ], [ -45.176761988702225, -21.312916554008165 ], [ -45.17676183056728, -21.312507711863216 ], [ -45.176755830567281, -21.312219711863214 ], [ -45.176736309108357, -21.311769708774044 ], [ -45.176727598564533, -21.311637675267626 ], [ -45.176725008499901, -21.311562887151471 ], [ -45.176700320779737, -21.311126284732097 ], [ -45.176681320779736, -21.310884284732097 ], [ -45.176391641486184, -21.309156115554465 ], [ -45.176322641486188, -21.308890115554465 ], [ -45.176025045562824, -21.30794018780383 ], [ -45.17589704556282, -21.307593187803828 ], [ -45.173738080101934, -21.30413828500869 ], [ -45.173558080101934, -21.303950285008693 ], [ -45.173293552017334, -21.303684178934144 ], [ -45.173100552017338, -21.303497178934144 ], [ -45.172254921526253, -21.302764949809745 ], [ -45.171964921526254, -21.302540949809746 ], [ -45.170597317929492, -21.301652616359871 ], [ -45.170354317929494, -21.301521616359871 ], [ -45.170007066158064, -21.301343074988104 ], [ -45.169764066158059, -21.301224074988102 ], [ -45.169750268324513, -21.301252250396104 ], [ -45.169223208251715, -21.301031799770744 ], [ -45.169136701571496, -21.300868487218388 ], [ -45.168993701571495, -21.300647487218388 ], [ -45.167976795197291, -21.299330675482949 ], [ -45.167783795197288, -21.299119675482949 ], [ -45.167036116471095, -21.298505749275467 ], [ -45.166716576074542, -21.296766363175895 ], [ -45.165583927502276, -21.294547711546244 ], [ -45.165616651466891, -21.29452745385386 ], [ -45.165486651466892, -21.294317453853861 ], [ -45.16544050540309, -21.294266773855711 ], [ -45.165401071447327, -21.294189529940553 ], [ -45.165269071447327, -21.294003529940554 ], [ -45.165227606183386, -21.294032956902061 ], [ -45.163541067264418, -21.292180712479603 ], [ -45.164213722233761, -21.290630593918522 ], [ -45.164279722233765, -21.290378593918522 ], [ -45.164459254229577, -21.286138137062505 ], [ -45.164415254229574, -21.285884137062503 ], [ -45.16374362637761, -21.283794544401232 ], [ -45.164493425627896, -21.282109228148748 ], [ -45.164496936710258, -21.282085438443417 ], [ -45.165277883510754, -21.281145401004157 ], [ -45.165404883510753, -21.280940401004155 ], [ -45.166414405009519, -21.278764662801873 ], [ -45.166569759545666, -21.277973916821953 ], [ -45.166897705177703, -21.277171902588453 ], [ -45.167245206979139, -21.274741359980723 ], [ -45.167250206979141, -21.274477359980722 ], [ -45.166837058498537, -21.271437271394944 ], [ -45.16676805849854, -21.271205271394948 ], [ -45.165912450809806, -21.26939564336304 ], [ -45.166024658661691, -21.26933229328187 ], [ -45.166065375177133, -21.269307126792427 ], [ -45.166139561591834, -21.269265003997639 ], [ -45.166279594896686, -21.269180023664859 ], [ -45.167757610737716, -21.268450129952488 ], [ -45.168018610737718, -21.268293129952486 ], [ -45.169335565211874, -21.267347571584789 ], [ -45.169560565211874, -21.267156571584792 ], [ -45.171127700578815, -21.26548104951258 ], [ -45.171223024379593, -21.265352220811529 ], [ -45.171784921566513, -21.265155562482203 ], [ -45.17179344919991, -21.265177872149369 ], [ -45.17205244919991, -21.26507887214937 ], [ -45.172218181603981, -21.265003925853449 ], [ -45.172352091467857, -21.264957058756188 ], [ -45.17253950484011, -21.264858619409146 ], [ -45.173137735545957, -21.264588091893653 ], [ -45.173348735545957, -21.264477091893653 ], [ -45.174373196213807, -21.263838468375873 ], [ -45.174386009021063, -21.263839959521544 ], [ -45.174892964849427, -21.263885915440735 ], [ -45.175138964849424, -21.263901915440734 ], [ -45.175140308486498, -21.263881257020707 ], [ -45.17628096650013, -21.263971753257749 ], [ -45.176563966500133, -21.26396575325775 ], [ -45.177507008581728, -21.263901073803016 ], [ -45.177765008581723, -21.263871073803017 ], [ -45.180788273488055, -21.263023264479312 ], [ -45.183399606115515, -21.261279746985295 ], [ -45.185341557495498, -21.258812413164957 ], [ -45.185456557495499, -21.258606413164955 ], [ -45.186607803132347, -21.255258499999083 ], [ -45.186520349186338, -21.251719257016482 ], [ -45.186475349186338, -21.251500257016485 ], [ -45.186421210262026, -21.251345246778122 ], [ -45.187368731672493, -21.250099323385005 ], [ -45.187490731672497, -21.249891323385004 ], [ -45.188446510853964, -21.247694629866992 ], [ -45.188852409402571, -21.245333650700619 ], [ -45.188863409402572, -21.245114650700621 ], [ -45.188865769991281, -21.245065211810331 ], [ -45.188876769991282, -21.24482221181033 ], [ -45.188758579013118, -21.242772524557996 ], [ -45.188719579013117, -21.242531524557997 ], [ -45.188597137338292, -21.241903169557407 ], [ -45.18854713733829, -21.241684169557406 ], [ -45.188199906246538, -21.240503512229395 ], [ -45.188099906246535, -21.240227512229396 ], [ -45.187276583776686, -21.238495138220738 ], [ -45.187152583776687, -21.238288138220739 ], [ -45.185383064963013, -21.236103296406231 ], [ -45.185198064963018, -21.235931296406232 ], [ -45.184914929923387, -21.235677913578751 ], [ -45.184741929923383, -21.235528913578751 ], [ -45.183933926616923, -21.234902018332331 ], [ -45.183737023017258, -21.234764782490135 ], [ -45.18387478723043, -21.233180973697866 ], [ -45.183912710502192, -21.232961389469981 ], [ -45.183948710502193, -21.232731389469983 ], [ -45.183975919414578, -21.232361861290318 ], [ -45.184219126526358, -21.231816854482076 ], [ -45.184365024512509, -21.230953677299336 ], [ -45.18445810603334, -21.230762646256302 ], [ -45.184555106033336, -21.230531646256303 ], [ -45.185334737460451, -21.226587538134527 ], [ -45.185332737460456, -21.226311538134528 ], [ -45.18474336034533, -21.223000936570045 ], [ -45.184656360345329, -21.222758936570045 ], [ -45.184140773787576, -21.221572207962293 ], [ -45.184028773787574, -21.221354207962293 ], [ -45.182659766947111, -21.219338953921365 ], [ -45.182498766947113, -21.219154953921365 ], [ -45.180617309601018, -21.217485197208418 ], [ -45.180420231765211, -21.217350443132656 ], [ -45.18025892661678, -21.217238018332235 ], [ -45.179696198712833, -21.216873223761166 ], [ -45.179557806668306, -21.216789963506734 ], [ -45.179465754922035, -21.216731385122742 ], [ -45.177921511153123, -21.215951335657014 ], [ -45.178031685402104, -21.215162076609214 ], [ -45.178042685402104, -21.214920076609214 ], [ -45.178052658510765, -21.214383358194041 ], [ -45.178050658510763, -21.214141358194041 ], [ -45.178040005373639, -21.213755201914033 ], [ -45.178027005373643, -21.213478201914032 ], [ -45.178022526749039, -21.213392715283344 ], [ -45.178383164159769, -21.212748663093887 ], [ -45.178459944235335, -21.212784469186822 ], [ -45.178556944235339, -21.212576469186821 ], [ -45.178787993888257, -21.212040755695668 ], [ -45.178897993888256, -21.211763755695667 ], [ -45.179310563902042, -21.210178879248108 ], [ -45.179453125224242, -21.209775477328233 ], [ -45.17951312522424, -21.209533477328232 ], [ -45.179796685402103, -21.207581076609213 ], [ -45.179807685402103, -21.207339076609212 ], [ -45.179817922500746, -21.206845630226475 ], [ -45.179816922500748, -21.206591630226477 ], [ -45.179795313907036, -21.206045948166711 ], [ -45.180459502943378, -21.205228001962254 ], [ -45.180605502943379, -21.205009001962253 ], [ -45.180939768601135, -21.204446007776049 ], [ -45.181694840884902, -21.203965677164838 ], [ -45.181853840884905, -21.203803677164835 ], [ -45.183796308479671, -21.20099020001086 ], [ -45.184677510773113, -21.197686820442804 ], [ -45.184394445491499, -21.194279665016502 ], [ -45.184331445491495, -21.194037665016502 ], [ -45.184126763471006, -21.193602087450014 ], [ -45.184140931156122, -21.193528704427504 ], [ -45.184231062353774, -21.193406232035407 ], [ -45.184908099610858, -21.192354233285222 ], [ -45.185018099610858, -21.192157233285222 ], [ -45.186237371902109, -21.188277037190165 ], [ -45.186260371902108, -21.188047037190167 ], [ -45.186299947787511, -21.186603733112097 ], [ -45.186285947787511, -21.186291733112096 ], [ -45.186224994886928, -21.185709397603055 ], [ -45.186251582868387, -21.18561235147072 ], [ -45.186213752239169, -21.185601986914769 ], [ -45.186212095362919, -21.185586157350212 ], [ -45.186680155049451, -21.183967411495022 ], [ -45.186716155049453, -21.183725411495022 ], [ -45.186818489921713, -21.182614775809306 ], [ -45.186828489921709, -21.182337775809305 ], [ -45.186724076640381, -21.180491684141113 ], [ -45.186686076640385, -21.180238684141113 ], [ -45.185386647535282, -21.176762649728285 ], [ -45.186902878199767, -21.17537803585838 ], [ -45.187061878199771, -21.175193035858381 ], [ -45.187979731619137, -21.173940031764026 ], [ -45.188101731619135, -21.173743031764026 ], [ -45.189223532472305, -21.171196018166704 ], [ -45.189599921886902, -21.168438474617147 ], [ -45.189598921886905, -21.168185474617147 ], [ -45.189583844492788, -21.167674654240543 ], [ -45.18958329325158, -21.167664653150123 ], [ -45.189581807908006, -21.167425017719591 ], [ -45.189572320698588, -21.167135388705898 ] ] ] ] } }
]
}
